NUSAT-41 (C PAYNE-G)    
1 56944U 23084N   26068.52133669  .00017238  00000+0  60137-3 0  9992
2 56944  97.5351 203.7033 0006231 323.7107  36.3710 15.29665757152543
STARLINK-31017          
1 58515U 23191H   26068.52321784 -.00000070  00000+0  69856-5 0  9990
2 58515  43.0031 232.1013 0001668 264.6398  95.4264 15.27578292128153
